NORAD_CAT_ID,OBJECT_NAME,OBJECT_TYPE,EPOCH,MEAN_MOTION,ECCENTRICITY,INCLINATION,RA_OF_ASC_NODE,ARG_OF_PERICENTER,MEAN_ANOMALY,BSTAR,MEAN_MOTION_DOT,MEAN_MOTION_DDOT,TLE_LINE0,TLE_LINE1,TLE_LINE2,SEMIMAJOR_AXIS,PERIOD,APOGEE,PERIGEE,DECAYED
52617.0,STARLINK-3996,PAYLOAD,2023-03-18 19:28:52,15.08859251,0.0001208,53.2153,108.3063,77.5715,282.5412,0.00079128,0.00012334,0.0,0 STARLINK-3996,1 52617U 22052V   23077.81171761  .00012334  00000-0  79128-3 0  9996,2 52617  53.2153 108.3063 0001208  77.5715 282.5412 15.08859251 46903,6917.822,95.436,540.522,538.851,0.0
52617.0,STARLINK-3996,PAYLOAD,2023-03-19 08:11:57,15.08863406,0.0001476,53.2155,105.9261,90.9306,269.1855,0.00065401,0.00010143,0.0,0 STARLINK-3996,1 52617U 22052V   23078.34163253  .00010143  00000-0  65401-3 0  9997,2 52617  53.2155 105.9261 0001476  90.9306 269.1855 15.08863406 47360,6917.809,95.436,540.695,538.653,0.0
52617.0,STARLINK-3996,PAYLOAD,2023-03-19 12:58:06,15.08869112,0.0001269,53.216,105.0345,81.5762,278.5374,0.00074785,0.00011644,0.0,0 STARLINK-3996,1 52617U 22052V   23078.54034861  .00011644  00000-0  74785-3 0  9993,2 52617  53.2160 105.0345 0001269  81.5762 278.5374 15.08869112 47014,6917.791,95.436,540.534,538.779,0.0
52617.0,STARLINK-3996,PAYLOAD,2023-03-19 19:19:38,15.0884738,0.0001241,53.2154,103.8454,88.5915,271.5219,-3.6333e-05,-8.66e-06,0.0,0 STARLINK-3996,1 52617U 22052V   23078.80531096 -.00000866  00000-0 -36333-4 0  9998,2 52617  53.2154 103.8454 0001241  88.5915 271.5219 15.08847380 47431,6917.858,95.437,540.581,538.864,0.0
52617.0,STARLINK-3996,PAYLOAD,2023-03-20 08:02:43,15.08846869,0.000144,53.2167,101.4648,101.3438,258.7716,5.9586e-05,6.61e-06,0.0,0 STARLINK-3996,1 52617U 22052V   23079.33523144  .00000661  00000-0  59586-4 0  9998,2 52617  53.2167 101.4648 0001440 101.3438 258.7716 15.08846869 47136,6917.859,95.437,540.721,538.728,0.0
52617.0,STARLINK-3996,PAYLOAD,2023-03-20 12:48:53,15.08850556,0.0001412,53.2166,100.5726,102.0867,258.0284,0.00016521,2.343e-05,0.0,0 STARLINK-3996,1 52617U 22052V   23079.53394947  .00002343  00000-0  16521-3 0  9997,2 52617  53.2166 100.5726 0001412 102.0867 258.0284 15.08850556 47169,6917.848,95.437,540.69,538.736,0.0
52617.0,STARLINK-3996,PAYLOAD,2023-03-21 04:42:44,15.08840777,0.0001562,53.2163,97.5978,107.6032,252.5131,-1.8198e-05,-5.78e-06,0.0,0 STARLINK-3996,1 52617U 22052V   23080.19635266 -.00000578  00000-0 -18198-4 0  9996,2 52617  53.2163  97.5978 0001562 107.6032 252.5131 15.08840777 47648,6917.878,95.438,540.824,538.662,0.0
52617.0,STARLINK-3996,PAYLOAD,2023-03-21 07:53:31,15.08842179,0.0001628,53.2167,97.0019,117.1067,243.0091,9.7686e-06,-1.33e-06,0.0,0 STARLINK-3996,1 52617U 22052V   23080.32883127 -.00000133  00000-0  97686-5 0  9998,2 52617  53.2167  97.0019 0001628 117.1067 243.0091 15.08842179 47288,6917.874,95.437,540.865,538.612,0.0
52617.0,STARLINK-3996,PAYLOAD,2023-03-22 06:08:55,15.08839783,0.0001694,53.2171,92.8394,120.3095,239.8065,0.00010977,1.459e-05,0.0,0 STARLINK-3996,1 52617U 22052V   23081.25619365  .00001459  00000-0  10977-3 0  9999,2 52617  53.2171  92.8394 0001694 120.3095 239.8065 15.08839783 47801,6917.881,95.438,540.918,538.574,0.0
52617.0,STARLINK-3996,PAYLOAD,2023-03-22 17:16:37,15.08842842,0.0001339,53.2166,90.7611,109.9126,250.201,7.8045e-05,9.54e-06,0.0,0 STARLINK-3996,1 52617U 22052V   23081.71987296  .00000954  00000-0  78045-4 0  9991,2 52617  53.2166  90.7611 0001339 109.9126 250.2010 15.08842842 47490,6917.872,95.437,540.663,538.81,0.0
52617.0,STARLINK-3996,PAYLOAD,2023-03-23 09:10:28,15.08841318,0.0001526,53.2182,87.7893,108.6836,251.4322,9.405e-05,1.209e-05,0.0,0 STARLINK-3996,1 52617U 22052V   23082.38227515  .00001209  00000-0  94050-4 0  9994,2 52617  53.2182  87.7893 0001526 108.6836 251.4322 15.08841318 47977,6917.876,95.437,540.797,538.686,0.0
52617.0,STARLINK-3996,PAYLOAD,2023-03-23 17:07:24,15.08839235,0.0001458,53.2185,86.3011,97.6563,262.4595,5.0485e-05,5.16e-06,0.0,0 STARLINK-3996,1 52617U 22052V   23082.71347684  .00000516  00000-0  50485-4 0  9995,2 52617  53.2185  86.3011 0001458  97.6563 262.4595 15.08839235 47648,6917.883,95.438,540.756,538.739,0.0
52617.0,STARLINK-3996,PAYLOAD,2023-03-24 04:15:05,15.08858738,0.0001267,53.218,84.2177,100.6532,259.4603,-6.2838e-05,-1.288e-05,0.0,0 STARLINK-3996,1 52617U 22052V   23083.17714767 -.00001288  00000-0 -62838-4 0  9990,2 52617  53.2180  84.2177 0001267 100.6532 259.4603 15.08858738 48097,6917.823,95.436,540.565,538.812,0.0
52617.0,STARLINK-3996,PAYLOAD,2023-03-24 07:25:51,15.08861267,0.0001355,53.2181,83.6257,95.9328,264.1819,0.00041126,6.267e-05,0.0,0 STARLINK-3996,1 52617U 22052V   23083.30962833  .00006267  00000-0  41126-3 0  9990,2 52617  53.2181  83.6257 0001355  95.9328 264.1819 15.08861267 47730,6917.815,95.436,540.618,538.743,0.0
52617.0,STARLINK-3996,PAYLOAD,2023-03-24 16:58:11,15.08847108,0.0001342,53.2186,81.8414,99.8221,260.2923,0.00015471,2.176e-05,0.0,0 STARLINK-3996,1 52617U 22052V   23083.70707227  .00002176  00000-0  15471-3 0  9997,2 52617  53.2186  81.8414 0001342  99.8221 260.2923 15.08847108 48171,6917.859,95.437,540.652,538.795,0.0
52617.0,STARLINK-3996,PAYLOAD,2023-03-25 04:05:53,15.08836429,0.000177,53.218,79.7582,96.0066,264.1128,3.0341e-05,1.95e-06,0.0,0 STARLINK-3996,1 52617U 22052V   23084.17075929  .00000195  00000-0  30341-4 0  9999,2 52617  53.2180  79.7582 0001770  96.0066 264.1128 15.08836429 48240,6917.891,95.438,540.981,538.532,0.0
52617.0,STARLINK-3996,PAYLOAD,2023-03-25 16:48:58,15.0883521,0.0001527,53.2192,77.3781,89.4665,270.6503,-7.2329e-06,-4.03e-06,0.0,0 STARLINK-3996,1 52617U 22052V   23084.70068144 -.00000403  00000-0 -72329-5 0  9996,2 52617  53.2192  77.3781 0001527  89.4665 270.6503 15.08835210 47941,6917.895,95.438,540.816,538.704,0.0
52617.0,STARLINK-3996,PAYLOAD,2023-03-26 05:32:03,15.08836574,0.0001089,53.2177,75.0001,92.567,267.5447,6.2174e-05,7.02e-06,0.0,0 STARLINK-3996,1 52617U 22052V   23085.23060112  .00000702  00000-0  62174-4 0  9998,2 52617  53.2177  75.0001 0001089  92.5670 267.5447 15.08836574 48406,6917.891,95.438,540.509,539.003,0.0
52617.0,STARLINK-3996,PAYLOAD,2023-03-26 16:39:45,15.08840074,9.89e-05,53.2166,72.9194,87.0685,273.042,3.1726e-06,-2.37e-06,0.0,0 STARLINK-3996,1 52617U 22052V   23085.69427992 -.00000237  00000-0  31726-5 0  9995,2 52617  53.2166  72.9194 0000989  87.0685 273.0420 15.08840074 48094,6917.88,95.438,540.429,539.061,0.0
52617.0,STARLINK-3996,PAYLOAD,2023-03-27 08:33:37,15.08840784,0.0001267,53.2185,69.9438,97.5175,262.5961,0.00011619,1.562e-05,0.0,0 STARLINK-3996,1 52617U 22052V   23086.35668129  .00001562  00000-0  11619-3 0  9996,2 52617  53.2185  69.9438 0001267  97.5175 262.5961 15.08840784 48576,6917.878,95.438,540.619,538.866,0.0
52617.0,STARLINK-3996,PAYLOAD,2023-03-28 08:24:23,15.08852593,0.0001235,53.2185,65.484,93.7906,266.3228,0.00013054,1.791e-05,0.0,0 STARLINK-3996,1 52617U 22052V   23087.35027439  .00001791  00000-0  13054-3 0  9999,2 52617  53.2185  65.4840 0001235  93.7906 266.3228 15.08852593 48343,6917.842,95.437,540.561,538.853,0.0
52617.0,STARLINK-3996,PAYLOAD,2023-03-29 01:53:39,15.08836626,0.0001202,53.2197,62.2164,85.9469,274.1661,0.00012697,1.733e-05,0.0,0 STARLINK-3996,1 52617U 22052V   23088.07892692  .00001733  00000-0  12697-3 0  9998,2 52617  53.2197  62.2164 0001202  85.9469 274.1661 15.08836626 48832,6917.891,95.438,540.587,538.924,0.0
52617.0,STARLINK-3996,PAYLOAD,2023-03-29 09:50:34,15.08849441,0.000144,53.2186,60.7267,82.1775,277.9381,0.00015531,2.185e-05,0.0,0 STARLINK-3996,1 52617U 22052V   23088.41011997  .00002185  00000-0  15531-3 0  9999,2 52617  53.2186  60.7267 0001440  82.1775 277.9381 15.08849441 48884,6917.852,95.437,540.713,538.72,0.0
52617.0,STARLINK-3996,PAYLOAD,2023-03-30 09:41:20,15.08861437,0.0001391,53.2183,56.267,92.8876,267.2275,0.00023351,3.432e-05,0.0,0 STARLINK-3996,1 52617U 22052V   23089.40371005  .00003432  00000-0  23351-3 0  9993,2 52617  53.2183  56.2670 0001391  92.8876 267.2275 15.08861437 48652,6917.815,95.436,540.642,538.718,0.0
52617.0,STARLINK-3996,PAYLOAD,2023-03-31 07:56:44,15.08856175,0.0001205,53.2185,52.1042,86.5833,273.5297,0.0002179,3.183e-05,0.0,0 STARLINK-3996,1 52617U 22052V   23090.33107447  .00003183  00000-0  21790-3 0  9992,2 52617  53.2185  52.1042 0001205  86.5833 273.5297 15.08856175 49174,6917.831,95.437,540.53,538.862,0.0
52617.0,STARLINK-3996,PAYLOAD,2023-04-01 03:01:23,15.08838188,0.0001299,53.218,48.5338,90.6593,269.4548,-0.00011402,-2.102e-05,0.0,0 STARLINK-3996,1 52617U 22052V   23091.12596375 -.00002102  00000-0 -11402-3 0  9993,2 52617  53.2180  48.5338 0001299  90.6593 269.4548 15.08838188 49298,6917.886,95.438,540.65,538.852,0.0
52617.0,STARLINK-3996,PAYLOAD,2023-04-01 07:47:32,15.08842626,0.0001226,53.2182,47.643,81.2244,278.8887,-1.3857e-05,-5.08e-06,0.0,0 STARLINK-3996,1 52617U 22052V   23091.32468154 -.00000508  00000-0 -13857-4 0  9993,2 52617  53.2182  47.6430 0001226  81.2244 278.8887 15.08842626 48945,6917.872,95.437,540.585,538.889,0.0
52617.0,STARLINK-3996,PAYLOAD,2023-04-02 02:52:09,15.08851939,8.81e-05,53.2182,44.075,85.2894,274.8198,0.00015476,2.177e-05,0.0,0 STARLINK-3996,1 52617U 22052V   23092.11956017  .00002177  00000-0  15476-3 0  9991,2 52617  53.2182  44.0750 0000881  85.2894 274.8198 15.08851939 49446,6917.844,95.437,540.318,539.099,0.0
52617.0,STARLINK-3996,PAYLOAD,2023-04-02 06:02:56,15.0885534,9.69e-05,53.2184,43.4804,88.8512,271.2591,0.00021544,3.144e-05,0.0,0 STARLINK-3996,1 52617U 22052V   23092.25203848  .00003144  00000-0  21544-3 0  9991,2 52617  53.2184  43.4804 0000969  88.8512 271.2591 15.08855340 49082,6917.834,95.437,540.369,539.028,0.0
52617.0,STARLINK-3996,PAYLOAD,2023-04-02 20:21:25,15.08832477,0.0001069,53.2191,40.8024,88.121,271.9905,9.3467e-05,1.2e-05,0.0,0 STARLINK-3996,1 52617U 22052V   23092.84821316  .00001200  00000-0  93467-4 0  9997,2 52617  53.2191  40.8024 0001069  88.1210 271.9905 15.08832477 49559,6917.903,95.438,540.508,539.029,0.0
